[
    {
        "CCSDS_OMM_VERS": "3.0",
        "COMMENT": "GENERATED VIA SPACE-TRACK.ORG API",
        "CREATION_DATE": "2025-04-12T03:00:55",
        "ORIGINATOR": "18 SPCS",
        "OBJECT_NAME": "GALILEO-FM3",
        "OBJECT_ID": "2012-055A",
        "CENTER_NAME": "EARTH",
        "REF_FRAME": "TEME",
        "TIME_SYSTEM": "UTC",
        "MEAN_ELEMENT_THEORY": "SGP4",
        "EPOCH": "2025-04-11T17:57:12.879072",
        "MEAN_MOTION": "1.70473602",
        "ECCENTRICITY": "0.00060160",
        "INCLINATION": "55.5536",
        "RA_OF_ASC_NODE": "113.3952",
        "ARG_OF_PERICENTER": "283.1040",
        "MEAN_ANOMALY": "76.8748",
        "EPHEMERIS_TYPE": "0",
        "CLASSIFICATION_TYPE": "U",
        "NORAD_CAT_ID": "38857",
        "ELEMENT_SET_NO": "999",
        "REV_AT_EPOCH": "7765",
        "BSTAR": "0.00000000000000",
        "MEAN_MOTION_DOT": "0.00000055",
        "MEAN_MOTION_DDOT": "0.0000000000000",
        "SEMIMAJOR_AXIS": "29600.366",
        "PERIOD": "844.706",
        "APOAPSIS": "23240.039",
        "PERIAPSIS": "23204.424",
        "OBJECT_TYPE": "PAYLOAD",
        "RCS_SIZE": "LARGE",
        "COUNTRY_CODE": "ESA",
        "LAUNCH_DATE": "2012-10-12",
        "SITE": "FRGUI",
        "DECAY_DATE": null,
        "FILE": "4699215",
        "GP_ID": "285397301",
        "TLE_LINE0": "0 GALILEO-FM3",
        "TLE_LINE1": "1 38857U 12055A   25101.74806573  .00000055  00000-0  00000-0 0  9993",
        "TLE_LINE2": "2 38857  55.5536 113.3952 0006016 283.1040  76.8748  1.70473602 77652"
    }
]